C/2017 F1 (Lemmon),h,11/30.5474/2017,146.4693,158.7807,64.7839,1.004147,4.497336,2000,10.5,4.0
# From MPC114598
C/2017 F2 (PANSTARRS),h,11/27.7692/2017,42.5115,38.6701,135.0493,1.004415,6.931802,2000,7.5,4.0
# From MPC104794
P/2017 G1 (PANSTARRS),e,4.7739,249.6273,224.5769,7.292190,0.0500515,0.65318954,73.1068,04/28.0/2020,2000,g 13.5,4.0
# From MPC108595
P/2017 G2 (PANSTARRS),e,47.9495,79.7936,105.5954,8.076658,0.0429395,0.64857129,45.1232,04/28.0/2020,2000,g 13.0,4.0
# From MPC109144
C/2017 G3 (PANSTARRS),e,159.0589,279.4803,73.1507,308.3536,0.0001820,0.99159645,0.0000,04/15.4787/2017,2000,g 14.0,4.0
# From MPC115882
C/2017 K1 (PANSTARRS),h,03/16.9964/2018,154.0099,225.6516,4.3683,1.001459,7.288950,2000,7.0,4.0
# From MPEC 2020-H67
C/2017 K2 (PANSTARRS),h,12/20.0129/2022,87.5425,88.2670,236.1539,1.000419,1.799942,2000,1.5,4.0
# From MPC106346
P/2017 K3 (Gasparovic),e,4.2747,354.2994,253.4311,5.580142,0.0747715,0.58087236,79.4314,04/28.0/2020,2000,g 14.5,4.0
# From MPC114598
C/2017 K4 (ATLAS),e,16.6802,298.8697,15.1993,28.42613,0.0065032,0.90679330,5.4670,04/28.0/2020,2000,g 10.0,4.0
# From MPC119995
C/2017 K5 (PANSTARRS),h,03/24.5894/2020,82.2613,102.3738,171.8635,1.006663,7.678699,2000,5.0,4.0
# From MPC114599
C/2017 K6 (Jacques),e,57.2543,85.0519,303.7717,1057,0.0000287,0.99810822,0.0000,01/03.2155/2018,2000,g 11.0,4.0
# From MPC110083
C/2017 M3 (PANSTARRS),e,77.5331,7.0058,110.3585,167.6993,0.0004538,0.97222197,0.0000,04/28.1909/2017,2000,g 10.5,4.0
# From MPEC 2020-H67
C/2017 M4 (ATLAS),h,01/17.8754/2019,105.6443,65.8642,167.5652,1.001148,3.251696,2000,6.0,4.0
# From MPC118841
C/2017 M5 (TOTAS),h,06/03.7909/2018,15.8818,216.2747,92.7237,1.005065,5.991642,2000,6.5,4.0
# From MPEC 2020-H67
C/2017 O1 (ASASSN),e,39.8769,25.7793,20.8578,358.8704,0.0001450,0.99583046,0.0000,10/14.7309/2017,2000,g 11.0,4.0
# From MPC114599
P/2017 P1 (PANSTARRS),e,7.6989,221.4013,122.1923,7.888133,0.0444880,0.31032042,30.2544,04/28.0/2020,2000,g 10.0,4.0
# From MPC114599
C/2017 P2 (PANSTARRS),e,50.0607,165.5089,132.3140,1902,0.0000119,0.99870498,0.0000,12/06.6836/2017,2000,g 10.0,4.0
# From MPC114599
P/2017 R1 (PANSTARRS),e,2.5736,143.6228,178.5182,4.134910,0.1172209,0.19555685,130.6584,04/28.0/2020,2000,g 13.5,4.0
# From MPC108595
C/2017 S2 (PANSTARRS),e,12.6803,62.4163,305.9363,20.50569,0.0106143,0.82385969,10.3230,04/28.0/2020,2000,g 13.0,4.0
# From MPC114599
C/2017 S3 (PANSTARRS),h,08/15.9620/2018,99.0970,171.1232,255.8411,1.000048,0.208408,2000,11.0,4.0
# From MPEC 2020-H67
P/2017 S5 (ATLAS),e,11.8503,252.3860,99.8331,3.169058,0.1747064,0.31380084,175.5376,04/28.0/2020,2000,g 14.0,4.0
# From MPEC 2020-H67
C/2017 S6 (Catalina),h,02/26.6689/2018,152.8677,131.0482,134.7921,1.000731,1.541959,2000,12.5,4.0
# From MPC114599
C/2017 S7 (Lemmon),h,05/25.9906/2017,124.2328,262.7920,187.6292,1.001242,7.609552,2000,7.0,4.0
# From MPC114599
P/2017 S8 (PANSTARRS),e,29.8233,191.7223,254.7149,2.778389,0.2128210,0.39262461,174.6977,04/28.0/2020,2000,g 16.0,4.0
# From MPC107050
P/2017 S9 (PANSTARRS),e,14.1434,146.2178,237.7331,3.154204,0.1759419,0.30488765,177.6645,04/28.0/2020,2000,g 17.0,4.0
# From MPC114600
C/2017 T1 (Heinze),h,02/21.4626/2018,96.8363,102.3158,96.9065,1.000012,0.581299,2000,14.5,4.0
# From MPEC 2020-H67
C/2017 T2 (PANSTARRS),e,57.2306,64.3779,92.9941,4316,0.0000035,0.99962577,0.0000,05/04.9527/2020,2000,g  5.0,4.0
# From MPC114600
C/2017 T3 (ATLAS),e,88.0314,230.0679,246.8336,1409,0.0000186,0.99941452,0.0000,07/19.0505/2018,2000,g 10.0,4.0
# From MPC115882
P/2017 TW13 (Lemmon),e,44.8470,322.2861,120.0535,7.149706,0.0515551,0.70937987,34.9106,04/28.0/2020,2000,g 15.0,2.0
# From MPC114600
C/2017 U2 (Fuls),e,95.3944,149.7124,147.7653,4617,0.0000031,0.99854815,0.0000,08/28.2828/2017,2000,g  9.0,4.0
# From MPC114600
P/2017 U3 (PANSTARRS),e,15.9124,165.1099,297.1539,4.932213,0.0899790,0.09897219,33.7491,04/28.0/2020,2000,g 11.0,4.0
# From MPEC 2020-H67
C/2017 U4 (PANSTARRS),h,09/24.2371/2018,158.2223,245.9500,159.0826,1.003465,7.722816,2000,7.0,4.0
# From MPC114600
C/2017 U5 (PANSTARRS),e,18.9668,163.0872,262.0709,16.87875,0.0142133,0.74384346,12.2452,04/28.0/2020,2000,g 12.0,4.0
# From MPEC 2020-H67
C/2017 U7 (PANSTARRS),h,09/12.8347/2019,142.6268,276.2368,326.1643,1.003004,6.418769,2000,6.0,3.2
# From MPC114600
C/2017 W2 (Leonard),e,98.1987,312.8352,169.1086,13.68524,0.0194682,0.71097280,17.6840,04/28.0/2020,2000,g 11.0,4.0
# From MPC114601
P/2017 W3 (Gibbs),e,18.1868,210.4304,327.5278,7.842525,0.0448766,0.50863901,35.3858,04/28.0/2020,2000,g 10.5,4.0
# From MPC115883
C/2017 X1 (PANSTARRS),e,31.3046,251.1296,283.2739,31.47656,0.0055811,0.85172081,3.8089,04/28.0/2020,2000,g 10.0,4.0
# From MPC117069
C/2017 Y1 (PANSTARRS),e,55.2642,307.5266,134.3657,2000,0.0000110,0.99814198,0.0000,08/31.1595/2017,2000,g 11.5,4.0
# From MPEC 2020-H67
C/2017 Y2 (PANSTARRS),h,11/04.4810/2020,128.4289,65.9755,147.8393,1.000549,4.632286,2000,15.0,4.0
# From MPC111770
P/2017 Y3 (Leonard),e,27.5699,153.8602,67.5732,9.851895,0.0318731,0.87036029,25.7201,04/28.0/2020,2000,g 16.5,4.0
# From MPC114601
C/2018 A1 (PANSTARRS),e,53.5914,336.6358,96.3202,25.12662,0.0078253,0.90378849,7.2049,04/28.0/2020,2000,g 12.5,4.0
# From MPEC 2020-H67
C/2018 A3 (ATLAS),e,139.5539,194.2920,86.4139,498.7861,0.0000885,0.99343170,0.0000,01/12.7735/2019,2000,g  8.5,4.0
# From MPC114601
C/2018 A4 (PANSTARRS),e,3.1481,97.6349,356.0872,12.22293,0.0230643,0.80349239,16.3854,04/28.0/2020,2000,g 14.0,4.0
# From MPC109147
P/2018 A5 (PANSTARRS),e,23.5778,87.8308,359.6248,5.638835,0.0736071,0.52224161,69.7582,04/28.0/2020,2000,g 15.0,4.0
# From MPEC 2020-H67
C/2018 A6 (Gibbs),e,76.9572,340.3839,264.5458,15.34944,0.0163895,0.80337683,4.7313,04/28.0/2020,2000,g  9.0,4.0
# From MPC118841
C/2018 B1 (Lemmon),h,03/29.8907/2018,162.4207,133.1891,68.3167,1.001806,5.115348,2000,9.0,4.0
# From MPC114601
P/2018 C1 (Lemmon-Read),e,5.1353,270.3923,235.4556,5.647203,0.0734436,0.53517976,58.0511,04/28.0/2020,2000,g 13.5,4.0
# From MPC114601
C/2018 C2 (Lemmon),h,06/01.9939/2018,34.4582,91.1384,134.1121,1.001021,1.956851,2000,13.0,4.0
# From MPEC 2020-H67
C/2018 DO4 (Lemmon),e,160.4741,251.1318,175.9625,25.79305,0.0075240,0.90672311,1.9083,04/28.0/2020,2000,g 11.0,4.0
# From MPC114602
C/2018 E1 (ATLAS),e,72.5042,146.8515,299.4398,54.06027,0.0024796,0.94997541,1.8393,04/28.0/2020,2000,g 10.5,4.0
# From MPC114602
C/2018 E2 (Barros),e,97.7316,67.2007,277.4812,3567,0.0000046,0.99890055,0.0000,12/23.9221/2017,2000,g 10.5,4.0
# From MPC114602
C/2018 EN4 (NEOWISE),e,81.5941,136.1526,35.0122,18.31017,0.0125796,0.92086830,8.6860,04/28.0/2020,2000,g 15.0,4.0
# From MPC114602
C/2018 EF9 (Lemmon),e,84.6635,172.5753,72.6206,594.5609,0.0000680,0.99738121,0.0000,05/23.0358/2018,2000,g 18.0,2.0
# From MPC115883
C/2018 F1 (Grauer),e,46.0755,177.2763,71.6386,300.6270,0.0001891,0.99004243,0.0000,12/14.0077/2018,2000,g 11.5,4.0
# From MPC110084
C/2018 F3 (Johnson),p,08/15.2314/2017,105.5348,293.0113,2.483172,173.0311,2000,13.0,4.0
# From MPEC 2020-H67
C/2018 F4 (PANSTARRS),h,12/04.1173/2019,78.0983,26.5085,263.2168,1.001540,3.439972,2000,11.9,2.0
# From MPC114602
P/2018 H2 (PANSTARRS),e,7.3881,68.4333,120.0302,4.396627,0.1069115,0.53987055,88.3155,04/28.0/2020,2000,g 16.6,2.0
# From MPC114602
C/2018 K1 (Weiland),e,164.1961,260.0160,325.0078,29.85495,0.0060420,0.93702986,4.5451,04/28.0/2020,2000,g 14.9,4.0
# From MPC118094
C/2018 KJ3 (Lemmon),e,136.7092,91.5942,217.6344,743.8655,0.0000486,0.99512169,0.0000,09/09.5419/2019,2000,g 12.2,2.0
# From MPC114602
P/2018 L1 (PANSTARRS),e,10.5946,268.6271,17.9404,3.649293,0.1413810,0.48304007,75.2704,04/28.0/2020,2000,g 15.0,4.0
# From MPEC 2020-H67
C/2018 L2 (ATLAS),e,67.4139,243.0221,56.2548,253.3830,0.0002444,0.99324278,0.0000,12/02.6395/2018,2000,g 10.0,4.0
# From MPC114603
P/2018 L4 (PANSTARRS),e,26.6234,145.1706,140.5076,4.938045,0.0898197,0.66031989,57.1335,04/28.0/2020,2000,g 17.5,4.0
# From MPC119996
P/2018 L5 (Leonard),e,2.2087,219.1498,93.7343,3.626981,0.1426876,0.36478696,103.3281,04/28.0/2020,2000,g 14.5,4.0
# From MPC117070
C/2018 M1 (Catalina),e,37.2743,339.4325,14.1452,21.30625,0.0100217,0.93885509,6.5931,04/28.0/2020,2000,g 15.5,4.0
# From MPC112393
C/2018 N1 (NEOWISE),e,159.4453,292.4421,354.5810,334.4544,0.0001611,0.99608810,0.0000,08/01.9126/2018,2000,g 15.5,4.0
# From MPEC 2020-H67
C/2018 N2 (ASASSN),h,11/10.9631/2019,77.5293,25.2566,24.3973,1.000126,3.124644,2000,6.0,4.0
# From MPC114603
C/2018 O1 (ATLAS),e,154.0425,87.6256,162.5267,27.80039,0.0067240,0.94391745,4.0712,04/28.0/2020,2000,g 17.0,4.0
# From MPC114603
P/2018 P3 (PANSTARRS),e,8.9083,59.2008,305.8659,3.006835,0.1890339,0.41615660,107.0842,04/28.0/2020,2000,g 14.5,4.0
# From MPC114603
P/2018 P4 (PANSTARRS),e,23.1066,353.0918,8.1578,6.666730,0.0572578,0.45007389,30.7721,04/28.0/2020,2000,g 12.0,4.0
# From MPC118094
C/2018 P5 (PANSTARRS),e,7.2552,216.2456,131.6703,12.77478,0.0215861,0.64177285,9.2047,04/28.0/2020,2000,g 11.0,4.0
# From MPEC 2020-H67
C/2018 R3 (Lemmon),e,69.7212,324.6286,112.8661,1848,0.0000124,0.99930174,0.0000,06/07.1929/2019,2000,g  9.5,4.0
# From MPC112393
C/2018 R4 (Fuls),e,11.6836,298.4365,345.2288,319.1150,0.0001729,0.99463729,0.0000,03/03.6903/2018,2000,g 14.0,4.0
# From MPC114603
C/2018 R5 (Lemmon),e,103.7497,171.1383,178.0297,22.80251,0.0090517,0.84116662,4.2903,04/28.0/2020,2000,g 11.5,4.0
# From MPEC 2020-H67
C/2018 U1 (Lemmon),h,11/02.7853/2021,108.3018,75.4765,180.4086,1.000487,4.994548,2000,5.0,4.0
# From MPC114604
C/2018 V1 (Machholz-Fujikawa-Iwamoto),h,12/03.4929/2018,144.0539,128.8792,88.8374,1.000426,0.385749,2000,12.0,4.0
# From MPC115884
C/2018 V2 (ATLAS),e,159.1270,356.8530,318.7861,25.48758,0.0076597,0.90280079,3.9676,04/28.0/2020,2000,g 15.0,4.0
# From MPC114604
P/2018 VN2 (Leonard),e,18.2470,226.5386,138.7252,4.065081,0.1202542,0.47817152,83.2908,04/28.0/2020,2000,g 15.0,4.0
# From MPEC 2020-H67
A/2018 V3,e,164.9778,308.6590,3.4938,120.6549,0.0007437,0.98889872,0.0000,09/08.6828/2019,2000,g 15.7,2.0
# From MPC114604
